[{"OBJECT_NAME":"MESON-1","OBJECT_ID":"2024-043AK","EPOCH":"2026-03-09T21:36:16.481664","MEAN_MOTION":15.29893494,"ECCENTRICITY":0.00095452,"INCLINATION":97.5469,"RA_OF_ASC_NODE":205.2839,"ARG_OF_PERICENTER":227.1432,"MEAN_ANOMALY":132.9007,"EPHEMERIS_TYPE":0,"CLASSIFICATION_TYPE":"U","NORAD_CAT_ID":59131,"ELEMENT_SET_NO":999,"REV_AT_EPOCH":11189,"BSTAR":0.0002974823,"MEAN_MOTION_DOT":8.544e-5,"MEAN_MOTION_DDOT":0},{"OBJECT_NAME":"STARLINK-31857","OBJECT_ID":"2024-097J","EPOCH":"2026-03-08T23:42:56.516832","MEAN_MOTION":15.27571569,"ECCENTRICITY":0.00014852,"INCLINATION":43.001,"RA_OF_ASC_NODE":277.9601,"ARG_OF_PERICENTER":256.6613,"MEAN_ANOMALY":103.4073,"EPHEMERIS_TYPE":0,"CLASSIFICATION_TYPE":"U","NORAD_CAT_ID":59843,"ELEMENT_SET_NO":999,"REV_AT_EPOCH":10181,"BSTAR":-2.3672732e-5,"MEAN_MOTION_DOT":-9.13e-6,"MEAN_MOTION_DDOT":0}]
